SENTINEL-2A             
1 40697U 15028A   26193.80909691  .00000074  00000+0  44741-4 0  9999
2 40697  98.5682 268.2960 0001267  94.8760 265.2568 14.30814069577390
SENTINEL-2B             
1 42063U 17013A   26193.80190916  .00000053  00000+0  37050-4 0  9998
2 42063  98.5690 268.2138 0001212  89.7337 270.3985 14.30814679488307
SENTINEL-2C             
1 60989U 24157A   26193.76696008  .00000036  00000+0  30292-4 0  9992
2 60989  98.5685 268.1861 0000949 101.0716 259.0574 14.30815246 96646
